{
  "type": "FeatureCollection",
  "features": [
    {
      "type": "Feature",
      "properties": {
        "norad_id": 67147,
        "name": "KUIPER-00221",
        "group": "last-30-days",
        "lat": 36.634358258119505,
        "lon": -161.50055619157746,
        "alt_km": 450.2650412110743,
        "timestamp": "2025-12-27T10:28:57.518922+00:00",
        "meta_object_name": "KUIPER-00221",
        "meta_object_id": "2025-301Q",
        "meta_epoch": "2025-12-27T03:40:12.177408",
        "meta_mean_motion": 15.35789898,
        "meta_eccentricity": 0.0005122,
        "meta_inclination": 51.8726,
        "meta_ra_of_asc_node": 55.6046,
        "meta_arg_of_pericenter": 116.2091,
        "meta_mean_anomaly": 243.9422,
        "meta_ephemeris_type": 0,
        "meta_classification_type": "U",
        "meta_norad_cat_id": 67147,
        "meta_element_set_no": 999,
        "meta_rev_at_epoch": 258,
        "meta_bstar": 0.001031,
        "meta_mean_motion_dot": 0.00036254,
        "meta_mean_motion_ddot": 0,
        "tle_line1": "1 67147U 25301Q   25361.15291872  .00036254  00000+0  10310-2 0  9994",
        "tle_line2": "2 67147  51.8726  55.6046 0005122 116.2091 243.9422 15.35789898  2586"
      },
      "geometry": {
        "type": "Point",
        "coordinates": [
          -161.50055619157746,
          36.634358258119505
        ]
      }
    },
    {
      "type": "Feature",
      "properties": {
        "norad_id": 67148,
        "name": "KUIPER-00232",
        "group": "last-30-days",
        "lat": 7.116720093065586,
        "lon": -131.4785382968006,
        "alt_km": 455.8619140760993,
        "timestamp": "2025-12-27T10:28:57.518932+00:00",
        "meta_object_name": "KUIPER-00232",
        "meta_object_id": "2025-301R",
        "meta_epoch": "2025-12-27T03:29:58.859232",
        "meta_mean_motion": 15.36758642,
        "meta_eccentricity": 0.0001618,
        "meta_inclination": 51.8748,
        "meta_ra_of_asc_node": 55.5548,
        "meta_arg_of_pericenter": 56.6085,
        "meta_mean_anomaly": 303.5056,
        "meta_ephemeris_type": 0,
        "meta_classification_type": "U",
        "meta_norad_cat_id": 67148,
        "meta_element_set_no": 999,
        "meta_rev_at_epoch": 258,
        "meta_bstar": 0.0010019,
        "meta_mean_motion_dot": 0.0003633,
        "meta_mean_motion_ddot": 0,
        "tle_line1": "1 67148U 25301R   25361.14582013  .00036330  00000+0  10019-2 0  9995",
        "tle_line2": "2 67148  51.8748  55.5548 0001618  56.6085 303.5056 15.36758642  2583"
      },
      "geometry": {
        "type": "Point",
        "coordinates": [
          -131.4785382968006,
          7.116720093065586
        ]
      }
    },
    {
      "type": "Feature",
      "properties": {
        "norad_id": 67149,
        "name": "KUIPER-00241",
        "group": "last-30-days",
        "lat": 21.73273130001267,
        "lon": -144.0581926776216,
        "alt_km": 453.3345458795693,
        "timestamp": "2025-12-27T10:28:57.518942+00:00",
        "meta_object_name": "KUIPER-00241",
        "meta_object_id": "2025-301S",
        "meta_epoch": "2025-12-27T03:34:48.363168",
        "meta_mean_motion": 15.36293146,
        "meta_eccentricity": 0.00029,
        "meta_inclination": 51.8745,
        "meta_ra_of_asc_node": 55.5744,
        "meta_arg_of_pericenter": 100.5552,
        "meta_mean_anomaly": 259.5761,
        "meta_ephemeris_type": 0,
        "meta_classification_type": "U",
        "meta_norad_cat_id": 67149,
        "meta_element_set_no": 999,
        "meta_rev_at_epoch": 291,
        "meta_bstar": 0.00054681,
        "meta_mean_motion_dot": 0.00019312,
        "meta_mean_motion_ddot": 0,
        "tle_line1": "1 67149U 25301S   25361.14917087  .00019312  00000+0  54681-3 0  9994",
        "tle_line2": "2 67149  51.8745  55.5744 0002900 100.5552 259.5761 15.36293146  2915"
      },
      "geometry": {
        "type": "Point",
        "coordinates": [
          -144.0581926776216,
          21.73273130001267
        ]
      }
    },
    {
      "type": "Feature",
      "properties": {
        "norad_id": 67150,
        "name": "KUIPER-00245",
        "group": "last-30-days",
        "lat": 38.97928834334217,
        "lon": -165.21960313680137,
        "alt_km": 450.2037330053754,
        "timestamp": "2025-12-27T10:28:57.518969+00:00",
        "meta_object_name": "KUIPER-00245",
        "meta_object_id": "2025-301T",
        "meta_epoch": "2025-12-27T03:41:08.772864",
        "meta_mean_motion": 15.35680478,
        "meta_eccentricity": 0.0005049,
        "meta_inclination": 51.8731,
        "meta_ra_of_asc_node": 55.6073,
        "meta_arg_of_pericenter": 124.3737,
        "meta_mean_anomaly": 235.7727,
        "meta_ephemeris_type": 0,
        "meta_classification_type": "U",
        "meta_norad_cat_id": 67150,
        "meta_element_set_no": 999,
        "meta_rev_at_epoch": 258,
        "meta_bstar": 0.00055749,
        "meta_mean_motion_dot": 0.00019312,
        "meta_mean_motion_ddot": 0,
        "tle_line1": "1 67150U 25301T   25361.15357376  .00019312  00000+0  55749-3 0  9992",
        "tle_line2": "2 67150  51.8731  55.6073 0005049 124.3737 235.7727 15.35680478  2582"
      },
      "geometry": {
        "type": "Point",
        "coordinates": [
          -165.21960313680137,
          38.97928834334217
        ]
      }
    },
    {
      "type": "Feature",
      "properties": {
        "norad_id": 67151,
        "name": "KUIPER-00246",
        "group": "last-30-days",
        "lat": 30.482328900138228,
        "lon": -153.32294288504542,
        "alt_km": 451.60627726389794,
        "timestamp": "2025-12-27T10:28:57.518982+00:00",
        "meta_object_name": "KUIPER-00246",
        "meta_object_id": "2025-301U",
        "meta_epoch": "2025-12-27T03:37:51.422304",
        "meta_mean_motion": 15.35960531,
        "meta_eccentricity": 0.0004005,
        "meta_inclination": 51.8741,
        "meta_ra_of_asc_node": 55.5908,
        "meta_arg_of_pericenter": 118.0107,
        "meta_mean_anomaly": 242.1285,
        "meta_ephemeris_type": 0,
        "meta_classification_type": "U",
        "meta_norad_cat_id": 67151,
        "meta_element_set_no": 999,
        "meta_rev_at_epoch": 260,
        "meta_bstar": 0.00075386,
        "meta_mean_motion_dot": 0.00026512,
        "meta_mean_motion_ddot": 0,
        "tle_line1": "1 67151U 25301U   25361.15128961  .00026512  00000+0  75386-3 0  9998",
        "tle_line2": "2 67151  51.8741  55.5908 0004005 118.0107 242.1285 15.35960531  2607"
      },
      "geometry": {
        "type": "Point",
        "coordinates": [
          -153.32294288504542,
          30.482328900138228
        ]
      }
    },
    {
      "type": "Feature",
      "properties": {
        "norad_id": 67152,
        "name": "KUIPER-00247",
        "group": "last-30-days",
        "lat": 42.74196541698613,
        "lon": 100.9371892393272,
        "alt_km": 458.9711980047405,
        "timestamp": "2025-12-27T10:28:57.518996+00:00",
        "meta_object_name": "KUIPER-00247",
        "meta_object_id": "2025-301V",
        "meta_epoch": "2025-12-27T03:58:10.051104",
        "meta_mean_motion": 15.34044636,
        "meta_eccentricity": 0.0011352,
        "meta_inclination": 51.8635,
        "meta_ra_of_asc_node": 55.6854,
        "meta_arg_of_pericenter": 156.6496,
        "meta_mean_anomaly": 203.5007,
        "meta_ephemeris_type": 0,
        "meta_classification_type": "U",
        "meta_norad_cat_id": 67152,
        "meta_element_set_no": 999,
        "meta_rev_at_epoch": 258,
        "meta_bstar": 0.00099216,
        "meta_mean_motion_dot": 0.00033007,
        "meta_mean_motion_ddot": 0,
        "tle_line1": "1 67152U 25301V   25361.16539411  .00033007  00000+0  99216-3 0  9991",
        "tle_line2": "2 67152  51.8635  55.6854 0011352 156.6496 203.5007 15.34044636  2581"
      },
      "geometry": {
        "type": "Point",
        "coordinates": [
          100.9371892393272,
          42.74196541698613
        ]
      }
    },
    {
      "type": "Feature",
      "properties": {
        "norad_id": 67153,
        "name": "KUIPER-00248",
        "group": "last-30-days",
        "lat": 51.72569174124365,
        "lon": 138.94676044079938,
        "alt_km": 451.53035118428306,
        "timestamp": "2025-12-27T10:28:57.519006+00:00",
        "meta_object_name": "KUIPER-00248",
        "meta_object_id": "2025-301W",
        "meta_epoch": "2025-12-27T03:51:19.944000",
        "meta_mean_motion": 15.34731865,
        "meta_eccentricity": 0.0008866,
        "meta_inclination": 51.8682,
        "meta_ra_of_asc_node": 55.6555,
        "meta_arg_of_pericenter": 145.6711,
        "meta_mean_anomaly": 214.4849,
        "meta_ephemeris_type": 0,
        "meta_classification_type": "U",
        "meta_norad_cat_id": 67153,
        "meta_element_set_no": 999,
        "meta_rev_at_epoch": 275,
        "meta_bstar": 0.0010948,
        "meta_mean_motion_dot": 0.00037263,
        "meta_mean_motion_ddot": 0,
        "tle_line1": "1 67153U 25301W   25361.16064750  .00037263  00000+0  10948-2 0  9993",
        "tle_line2": "2 67153  51.8682  55.6555 0008866 145.6711 214.4849 15.34731865  2757"
      },
      "geometry": {
        "type": "Point",
        "coordinates": [
          138.94676044079938,
          51.72569174124365
        ]
      }
    }
  ]
}